FM-5                    
1 35493U 09034A   24189.53279235 -.00000204  00000+0  00000+0 0  9995
2 35493   0.0189 310.1350 0000548 326.5680 114.9326  1.00275652 39527
INTELSAT 14 (IS-14)     
1 36097U 09064A   24189.46934738 -.00000277  00000+0  00000+0 0  9997
2 36097   0.0073  48.7903 0002197  60.3603 300.7304  1.00271180 53482
INTELSAT 15 (IS-15)     
1 36106U 09067A   24189.56685058 -.00000189  00000+0  00000+0 0  9992
2 36106   0.0174  72.0299 0001962  41.3084 101.8844  1.00271284 34117
DIRECTV 12              
1 36131U 09075A   24189.60100377 -.00000107  00000+0  00000+0 0  9990
2 36131   0.0043 283.5224 0000219  39.2596  76.8922  1.00272500 53273
INTELSAT 16 (IS-16)     
1 36397U 10006A   24189.53470684 -.00000248  00000+0  00000+0 0  9999
2 36397   0.0202  61.9520 0002542  77.7964 262.5150  1.00271162 52536
XM-5                    
1 37185U 10053A   24189.74161032 -.00000026  00000+0  00000+0 0  9998
2 37185   0.0184  26.9138 0000365 236.6268 174.4211  1.00269344 50335
INTELSAT 17 (IS-17)     
1 37238U 10065B   24189.56307622 -.00000005  00000+0  00000+0 0  9994
2 37238   0.0061  41.4365 0002510  68.2345  85.0366  1.00271302 46128
INTELSAT NEW DAWN       
1 37392U 11016A   24189.55646250  .00000152  00000+0  00000+0 0  9996
2 37392   0.0263  91.5921 0000989  49.6543  17.8936  1.00274103 46171
INTELSAT 18 (IS-18)     
1 37834U 11056A   24189.86716069  .00000049  00000+0  00000+0 0  9996
2 37834   0.0181  71.2726 0001753  36.0893 311.1144  1.00270926 46739
INTELSAT 22 (IS-22)     
1 38098U 12011A   24189.49266944 -.00000062  00000+0  00000+0 0  9998
2 38098   0.0187  55.2230 0001812  54.1863  65.9866  1.00271673    76
INTELSAT 19 (IS-19)     
1 38356U 12030A   24189.50743980 -.00000060  00000+0  00000+0 0  9996
2 38356   0.0180  10.0547 0002833 105.5445 159.0226  1.00271994 44391
INTELSAT 20 (IS-20)     
1 38740U 12043A   24190.14841274 -.00000027  00000+0  00000+0 0  9997
2 38740   0.0064  62.4547 0000749 118.3947 227.6569  1.00271127 43729
INTELSAT 21 (IS-21)     
1 38749U 12045A   24189.53836179 -.00000288  00000+0  00000+0 0  9996
2 38749   0.0255  78.6794 0001666  35.3805 307.7318  1.00274183 43405
INTELSAT 23 (IS-23)     
1 38867U 12057A   24189.53931905 -.00000288  00000+0  00000+0 0  9993
2 38867   0.0484 227.5728 0001435 167.5679  31.9492  1.00263752 42827
FM-6                    
1 39360U 13058A   24189.52678778 -.00000020  00000+0  00000+0 0  9993
2 39360   0.0326  62.1949 0000520 315.9766 341.2873  1.00271432 38941
INTELSAT 30 (IS-30)     
1 40271U 14062A   24187.53788223 -.00000155  00000+0  00000+0 0  9997
2 40271   0.0096  20.9776 0002257 335.7772  25.8389  1.00281952    49
DIRECTV 14              
1 40333U 14078B   24188.56556778 -.00000129  00000+0  00000+0 0  9996
2 40333   0.0160   4.6121 0000239 252.8814 131.8874  1.00270471 35125
DIRECTV 15              
1 40663U 15026A   24189.24250544 -.00000106  00000+0  00000+0 0  9999
2 40663   0.0334  82.0610 0000389 108.0812  79.9863  1.00272912 33358
SKY MEXICO-1            
1 40664U 15026B   24189.83799177 -.00000238  00000+0  00000+0 0  9991
2 40664   0.0176 359.5043 0001701 113.7827  35.8994  1.00271989 33420
INTELSAT 34 (IS-34)     
1 40874U 15039A   24189.89661699 -.00000289  00000+0  00000+0 0  9997
2 40874   0.0230 355.5490 0001242   1.3977 196.6758  1.00271483 32505
INTELSAT 31 (IS-31)     
1 41581U 16035A   24187.41996288 -.00000154  00000+0  00000+0 0  9992
2 41581   0.0177  89.7417 0001063  96.4897 153.7886  1.00270618 29559
INTELSAT 36 (IS-36)     
1 41747U 16053A   24188.84790348 -.00000029  00000+0  00000+0 0  9994
2 41747   0.0103  21.4773 0002446 341.3646 296.1939  1.00271955 28825
INTELSAT 33E (IS-33E)   
1 41748U 16053B   24189.56185791  .00000045  00000+0  00000+0 0  9992
2 41748   0.0153  40.4696 0001486  54.4476  93.3325  1.00272172 29135
INTELSAT 32E (IS-32E)   
1 41945U 17007B   24189.82757102 -.00000272  00000+0  00000+0 0  9994
2 41945   0.0190  31.8601 0000797 317.1935 191.9612  1.00273071 27139
INTELSAT 35E (IS-35E)   
1 42818U 17041A   24189.39994269 -.00000242  00000+0  00000+0 0  9998
2 42818   0.0219  46.1403 0001019  57.9753 291.2281  1.00269228 25699
INTELSAT 37E (IS-37E)   
1 42950U 17059A   24189.40298847 -.00000145  00000+0  00000+0 0  9997
2 42950   0.0229  43.4084 0002432  70.4121 299.1048  1.00269708 24949
AZERSPACE 2 (IS-38)     
1 43632U 18074A   24189.84509961  .00000133  00000+0  00000+0 0  9999
2 43632   0.0183  31.7483 0001175  74.0558 169.8308  1.00272044 21335
HORIZONS-3E             
1 43633U 18074B   24189.79815738 -.00000034  00000+0  00000+0 0  9997
2 43633   0.0574 218.4795 0000956  63.6104 100.4701  1.00271085 21205
AT&T T-16               
1 44333U 19034A   24190.17383850 -.00000118  00000+0  00000+0 0  9994
2 44333   0.0146 326.9465 0000824 324.7637 316.6212  1.00268648 18523
INTELSAT 39 (IS-39)     
1 44476U 19049B   24189.76785627  .00000030  00000+0  00000+0 0  9991
2 44476   0.0211  34.6680 0001050 308.3988 281.5214  1.00269446 18018
GALAXY 30 (G-30)        
1 46114U 20056C   24189.73969582  .00000033  00000+0  00000+0 0  9996
2 46114   0.0187  34.7947 0001684  71.0448 321.6337  1.00272516 14296
